<?xml version="1.0" encoding="UTF-8" standalone="yes"?><gpx xmlns="http://www.topografix.com/GPX/1/1" creator="PyGPSClient" version="1.1" xmlns:xsi="http://www.w3.org/2001/XMLSchema-instance" xsi:schemaLocation="http://www.topografix.com/GPX/1/1 http://www.topografix.com/GPX/1/1/gpx.xsd"><metadata><link href="https://github.com/semuconsulting/PyGPSClient"><text>PyGPSClient</text></link><time>2026-08-07T11:34:52.933068Z</time></metadata><trk><name>GPX track from PyGPSClient</name><desc>GPX track from PyGPSClient</desc><trkseg><trkpt lat="37.1468179487" lon="127.4144411105"><ele>0.0</ele><time>2026-08-07T02:35:55.400000Z</time><fix>none</fix><sat>0</sat><pdop>0.0</pdop></trkpt><trkpt lat="37.1468193553" lon="127.4144414222"><ele>147.194</ele><time>2026-08-07T02:35:56.600000Z</time><fix>dgps</fix><sat>27</sat><pdop>0.0</pdop><ageofdgpsdata>1.4</ageofdgpsdata><dgpsid>1012</dgpsid></trkpt><trkpt lat="37.1468185443" lon="127.414441301"><ele>147.4199</ele><time>2026-08-07T02:35:57.600000Z</time><fix>dgps</fix><sat>30</sat><pdop>0.0</pdop><ageofdgpsdata>0.6</ageofdgpsdata><dgpsid>1012</dgpsid></trkpt><trkpt lat="37.1468224948" lon="127.4144479265"><ele>147.369</ele><time>2026-08-07T02:35:58.800000Z</time><fix>dgps</fix><sat>30</sat><pdop>0.0</pdop><ageofdgpsdata>1.6</ageofdgpsdata><dgpsid>1012</dgpsid></trkpt><trkpt lat="37.146827703" lon="127.414456437"><ele>147.4169</ele><time>2026-08-07T02:35:59.800000Z</time><fix>dgps</fix><sat>27</sat><pdop>0.0</pdop><ageofdgpsdata>1.8</ageofdgpsdata><dgpsid>1012</dgpsid></trkpt><trkpt lat="37.1468328222" lon="127.4144676458"><ele>147.3565</ele><time>2026-08-07T02:36:00.800000Z</time><fix>dgps</fix><sat>29</sat><pdop>0.0</pdop><ageofdgpsdata>0.6</ageofdgpsdata><dgpsid>1012</dgpsid></trkpt><trkpt lat="37.1468373335" lon="127.4144838562"><ele>147.3136</ele><time>2026-08-07T02:36:02Z</time><fix>dgps</fix><sat>29</sat><pdop>0.0</pdop><ageofdgpsdata>0.8</ageofdgpsdata><dgpsid>1012</dgpsid></trkpt><trkpt lat="37.1468396113" lon="127.4144994077"><ele>147.1723</ele><time>2026-08-07T02:36:03.200000Z</time><fix>dgps</fix><sat>27</sat><pdop>0.0</pdop><ageofdgpsdata>1.0</ageofdgpsdata><dgpsid>1012</dgpsid></trkpt><trkpt lat="37.1468415245" lon="127.4145124252"><ele>147.1876</ele><time>2026-08-07T02:36:04.200000Z</time><fix>dgps</fix><sat>29</sat><pdop>0.0</pdop><ageofdgpsdata>1.2</ageofdgpsdata><dgpsid>1012</dgpsid></trkpt><trkpt lat="37.146842561" lon="127.4145281257"><ele>147.2646</ele><time>2026-08-07T02:36:05.400000Z</time><fix>dgps</fix><sat>30</sat><pdop>0.0</pdop><ageofdgpsdata>1.2</ageofdgpsdata><dgpsid>1012</dgpsid></trkpt><trkpt lat="37.1468419037" lon="127.4145332057"><ele>147.4638</ele><time>2026-08-07T02:36:06.400000Z</time><fix>dgps</fix><sat>32</sat><pdop>0.0</pdop><ageofdgpsdata>1.2</ageofdgpsdata><dgpsid>1012</dgpsid></trkpt><trkpt lat="37.1468392465" lon="127.4145350402"><ele>147.5815</ele><time>2026-08-07T02:36:07.400000Z</time><fix>dgps</fix><sat>33</sat><pdop>0.0</pdop><ageofdgpsdata>1.2</ageofdgpsdata><dgpsid>1012</dgpsid></trkpt><trkpt lat="37.1468398503" lon="127.4145444012"><ele>147.4712</ele><time>2026-08-07T02:36:08.600000Z</time><fix>dgps</fix><sat>32</sat><pdop>0.0</pdop><ageofdgpsdata>1.4</ageofdgpsdata><dgpsid>1012</dgpsid></trkpt><trkpt lat="37.1468421323" lon="127.4145447208"><ele>147.3488</ele><time>2026-08-07T02:36:09.600000Z</time><fix>dgps</fix><sat>34</sat><pdop>0.0</pdop><ageofdgpsdata>1.6</ageofdgpsdata><dgpsid>1012</dgpsid></trkpt><trkpt lat="37.1468432165" lon="127.4145450435"><ele>147.301</ele><time>2026-08-07T02:36:10.600000Z</time><fix>dgps</fix><sat>33</sat><pdop>0.0</pdop><ageofdgpsdata>1.6</ageofdgpsdata><dgpsid>1012</dgpsid></trkpt><trkpt lat="37.1468435953" lon="127.4145460322"><ele>147.2546</ele><time>2026-08-07T02:36:11.800000Z</time><fix>dgps</fix><sat>33</sat><pdop>0.0</pdop><ageofdgpsdata>1.6</ageofdgpsdata><dgpsid>1012</dgpsid></trkpt><trkpt lat="37.1468431138" lon="127.414554183"><ele>147.2723</ele><time>2026-08-07T02:36:12.800000Z</time><fix>dgps</fix><sat>35</sat><pdop>0.0</pdop><ageofdgpsdata>1.6</ageofdgpsdata><dgpsid>1012</dgpsid></trkpt><trkpt lat="37.1468431023" lon="127.4145660555"><ele>147.2977</ele><time>2026-08-07T02:36:13.800000Z</time><fix>dgps</fix><sat>34</sat><pdop>0.0</pdop><ageofdgpsdata>0.8</ageofdgpsdata><dgpsid>1012</dgpsid></trkpt><trkpt lat="37.1468453133" lon="127.4145785712"><ele>147.3816</ele><time>2026-08-07T02:36:14.800000Z</time><fix>dgps</fix><sat>34</sat><pdop>0.0</pdop><ageofdgpsdata>0.8</ageofdgpsdata><dgpsid>1012</dgpsid></trkpt><trkpt lat="37.1468469173" lon="127.414594269"><ele>147.3748</ele><time>2026-08-07T02:36:16Z</time><fix>dgps</fix><sat>35</sat><pdop>0.0</pdop><ageofdgpsdata>1.8</ageofdgpsdata><dgpsid>1012</dgpsid></trkpt><trkpt lat="37.1468477262" lon="127.4146067258"><ele>147.4032</ele><time>2026-08-07T02:36:17Z</time><fix>dgps</fix><sat>34</sat><pdop>0.0</pdop><ageofdgpsdata>0.8</ageofdgpsdata><dgpsid>1012</dgpsid></trkpt><trkpt lat="37.1468482467" lon="127.4146194252"><ele>147.3969</ele><time>2026-08-07T02:36:18Z</time><fix>dgps</fix><sat>34</sat><pdop>0.0</pdop><ageofdgpsdata>1.0</ageofdgpsdata><dgpsid>1012</dgpsid></trkpt><trkpt lat="37.1468493602" lon="127.4146321422"><ele>147.3882</ele><time>2026-08-07T02:36:19Z</time><fix>dgps</fix><sat>34</sat><pdop>0.0</pdop><ageofdgpsdata>1.0</ageofdgpsdata><dgpsid>1012</dgpsid></trkpt><trkpt lat="37.1468508093" lon="127.4146443855"><ele>147.3743</ele><time>2026-08-07T02:36:20Z</time><fix>dgps</fix><sat>33</sat><pdop>0.0</pdop><ageofdgpsdata>1.0</ageofdgpsdata><dgpsid>1012</dgpsid></trkpt><trkpt lat="37.1468513308" lon="127.4146586442"><ele>147.421</ele><time>2026-08-07T02:36:21.200000Z</time><fix>dgps</fix><sat>32</sat><pdop>0.0</pdop><ageofdgpsdata>1.0</ageofdgpsdata><dgpsid>1012</dgpsid></trkpt><trkpt lat="37.1468527233" lon="127.4146702967"><ele>147.3881</ele><time>2026-08-07T02:36:22.200000Z</time><fix>dgps</fix><sat>33</sat><pdop>0.0</pdop><ageofdgpsdata>1.2</ageofdgpsdata><dgpsid>1012</dgpsid></trkpt><trkpt lat="37.1468546828" lon="127.4146818937"><ele>147.3881</ele><time>2026-08-07T02:36:23.200000Z</time><fix>dgps</fix><sat>32</sat><pdop>0.0</pdop><ageofdgpsdata>1.2</ageofdgpsdata><dgpsid>1012</dgpsid></trkpt><trkpt lat="37.146857225" lon="127.4146937863"><ele>147.4026</ele><time>2026-08-07T02:36:24.200000Z</time><fix>dgps</fix><sat>31</sat><pdop>0.0</pdop><ageofdgpsdata>1.2</ageofdgpsdata><dgpsid>1012</dgpsid></trkpt><trkpt lat="37.1468629817" lon="127.4147075702"><ele>147.3448</ele><time>2026-08-07T02:36:25.400000Z</time><fix>dgps</fix><sat>30</sat><pdop>0.0</pdop><ageofdgpsdata>1.2</ageofdgpsdata><dgpsid>1012</dgpsid></trkpt><trkpt lat="37.1468696512" lon="127.4147182548"><ele>147.328</ele><time>2026-08-07T02:36:26.400000Z</time><fix>dgps</fix><sat>32</sat><pdop>0.0</pdop><ageofdgpsdata>1.4</ageofdgpsdata><dgpsid>1012</dgpsid></trkpt><trkpt lat="37.1468766335" lon="127.4147273422"><ele>147.3616</ele><time>2026-08-07T02:36:27.400000Z</time><fix>dgps</fix><sat>32</sat><pdop>0.0</pdop><ageofdgpsdata>1.4</ageofdgpsdata><dgpsid>1012</dgpsid></trkpt><trkpt lat="37.1468859932" lon="127.4147369477"><ele>147.3562</ele><time>2026-08-07T02:36:28.600000Z</time><fix>dgps</fix><sat>31</sat><pdop>0.0</pdop><ageofdgpsdata>1.4</ageofdgpsdata><dgpsid>1012</dgpsid></trkpt><trkpt lat="37.1468949085" lon="127.414744186"><ele>147.3254</ele><time>2026-08-07T02:36:29.600000Z</time><fix>dgps</fix><sat>33</sat><pdop>0.0</pdop><ageofdgpsdata>1.4</ageofdgpsdata><dgpsid>1012</dgpsid></trkpt><trkpt lat="37.1469039288" lon="127.4147507687"><ele>147.3904</ele><time>2026-08-07T02:36:30.600000Z</time><fix>dgps</fix><sat>31</sat><pdop>0.0</pdop><ageofdgpsdata>1.6</ageofdgpsdata><dgpsid>1012</dgpsid></trkpt><trkpt lat="37.1469135045" lon="127.4147560733"><ele>147.3282</ele><time>2026-08-07T02:36:31.600000Z</time><fix>dgps</fix><sat>32</sat><pdop>0.0</pdop><ageofdgpsdata>0.6</ageofdgpsdata><dgpsid>1012</dgpsid></trkpt><trkpt lat="37.1469257535" lon="127.4147610935"><ele>147.3263</ele><time>2026-08-07T02:36:32.800000Z</time><fix>dgps</fix><sat>29</sat><pdop>0.0</pdop><ageofdgpsdata>0.6</ageofdgpsdata><dgpsid>1012</dgpsid></trkpt><trkpt lat="37.1469362668" lon="127.4147636603"><ele>147.2858</ele><time>2026-08-07T02:36:33.800000Z</time><fix>dgps</fix><sat>31</sat><pdop>0.0</pdop><ageofdgpsdata>0.6</ageofdgpsdata><dgpsid>1012</dgpsid></trkpt><trkpt lat="37.1469473102" lon="127.414766518"><ele>147.3195</ele><time>2026-08-07T02:36:34.800000Z</time><fix>dgps</fix><sat>32</sat><pdop>0.0</pdop><ageofdgpsdata>0.8</ageofdgpsdata><dgpsid>1012</dgpsid></trkpt><trkpt lat="37.1469581822" lon="127.4147688633"><ele>147.2724</ele><time>2026-08-07T02:36:35.800000Z</time><fix>dgps</fix><sat>32</sat><pdop>0.0</pdop><ageofdgpsdata>1.8</ageofdgpsdata><dgpsid>1012</dgpsid></trkpt><trkpt lat="37.1469684833" lon="127.4147703915"><ele>147.252</ele><time>2026-08-07T02:36:36.800000Z</time><fix>dgps</fix><sat>32</sat><pdop>0.0</pdop><ageofdgpsdata>1.8</ageofdgpsdata><dgpsid>1012</dgpsid></trkpt><trkpt lat="37.1469813668" lon="127.4147717463"><ele>147.2639</ele><time>2026-08-07T02:36:38Z</time><fix>dgps</fix><sat>35</sat><pdop>0.0</pdop><ageofdgpsdata>0.8</ageofdgpsdata><dgpsid>1012</dgpsid></trkpt><trkpt lat="37.1469926813" lon="127.414772202"><ele>147.3305</ele><time>2026-08-07T02:36:39Z</time><fix>dgps</fix><sat>34</sat><pdop>0.0</pdop><ageofdgpsdata>1.0</ageofdgpsdata><dgpsid>1012</dgpsid></trkpt><trkpt lat="37.1470040553" lon="127.4147726755"><ele>147.2858</ele><time>2026-08-07T02:36:40Z</time><fix>dgps</fix><sat>34</sat><pdop>0.0</pdop><ageofdgpsdata>1.0</ageofdgpsdata><dgpsid>1012</dgpsid></trkpt><trkpt lat="37.1470174242" lon="127.4147731745"><ele>147.2795</ele><time>2026-08-07T02:36:41.200000Z</time><fix>dgps</fix><sat>32</sat><pdop>0.0</pdop><ageofdgpsdata>1.0</ageofdgpsdata><dgpsid>1012</dgpsid></trkpt><trkpt lat="37.1470283185" lon="127.4147739503"><ele>147.2739</ele><time>2026-08-07T02:36:42.200000Z</time><fix>dgps</fix><sat>31</sat><pdop>0.0</pdop><ageofdgpsdata>1.0</ageofdgpsdata><dgpsid>1012</dgpsid></trkpt><trkpt lat="37.1470390962" lon="127.4147734905"><ele>147.2937</ele><time>2026-08-07T02:36:43.200000Z</time><fix>dgps</fix><sat>31</sat><pdop>0.0</pdop><ageofdgpsdata>1.2</ageofdgpsdata><dgpsid>1012</dgpsid></trkpt><trkpt lat="37.1470497435" lon="127.4147727653"><ele>147.2717</ele><time>2026-08-07T02:36:44.200000Z</time><fix>dgps</fix><sat>29</sat><pdop>0.0</pdop><ageofdgpsdata>1.2</ageofdgpsdata><dgpsid>1012</dgpsid></trkpt><trkpt lat="37.147061027" lon="127.4147728502"><ele>147.2404</ele><time>2026-08-07T02:36:45.200000Z</time><fix>dgps</fix><sat>28</sat><pdop>0.0</pdop><ageofdgpsdata>1.2</ageofdgpsdata><dgpsid>1012</dgpsid></trkpt><trkpt lat="37.1470746167" lon="127.414772396"><ele>147.3086</ele><time>2026-08-07T02:36:46.400000Z</time><fix>dgps</fix><sat>28</sat><pdop>0.0</pdop><ageofdgpsdata>1.2</ageofdgpsdata><dgpsid>1012</dgpsid></trkpt><trkpt lat="37.1470855252" lon="127.4147718778"><ele>147.2896</ele><time>2026-08-07T02:36:47.400000Z</time><fix>dgps</fix><sat>29</sat><pdop>0.0</pdop><ageofdgpsdata>1.4</ageofdgpsdata><dgpsid>1012</dgpsid></trkpt><trkpt lat="37.1470963645" lon="127.4147715365"><ele>147.2982</ele><time>2026-08-07T02:36:48.400000Z</time><fix>dgps</fix><sat>29</sat><pdop>0.0</pdop><ageofdgpsdata>1.4</ageofdgpsdata><dgpsid>1012</dgpsid></trkpt><trkpt lat="37.14710958" lon="127.4147714193"><ele>147.3326</ele><time>2026-08-07T02:36:49.600000Z</time><fix>dgps</fix><sat>28</sat><pdop>0.0</pdop><ageofdgpsdata>1.4</ageofdgpsdata><dgpsid>1012</dgpsid></trkpt><trkpt lat="37.1471205927" lon="127.4147714025"><ele>147.292</ele><time>2026-08-07T02:36:50.600000Z</time><fix>dgps</fix><sat>26</sat><pdop>0.0</pdop><ageofdgpsdata>1.4</ageofdgpsdata><dgpsid>1012</dgpsid></trkpt><trkpt lat="37.1471318862" lon="127.414771205"><ele>147.2883</ele><time>2026-08-07T02:36:51.600000Z</time><fix>dgps</fix><sat>28</sat><pdop>0.0</pdop><ageofdgpsdata>1.6</ageofdgpsdata><dgpsid>1012</dgpsid></trkpt><trkpt lat="37.1471428162" lon="127.4147706777"><ele>147.2963</ele><time>2026-08-07T02:36:52.600000Z</time><fix>dgps</fix><sat>28</sat><pdop>0.0</pdop><ageofdgpsdata>1.6</ageofdgpsdata><dgpsid>1012</dgpsid></trkpt><trkpt lat="37.1471535645" lon="127.4147690075"><ele>147.3343</ele><time>2026-08-07T02:36:53.600000Z</time><fix>dgps</fix><sat>28</sat><pdop>0.0</pdop><ageofdgpsdata>0.6</ageofdgpsdata><dgpsid>1012</dgpsid></trkpt><trkpt lat="37.1471659618" lon="127.4147662895"><ele>147.3098</ele><time>2026-08-07T02:36:54.800000Z</time><fix>dgps</fix><sat>28</sat><pdop>0.0</pdop><ageofdgpsdata>0.6</ageofdgpsdata><dgpsid>1012</dgpsid></trkpt><trkpt lat="37.1471763402" lon="127.4147619208"><ele>147.3331</ele><time>2026-08-07T02:36:55.800000Z</time><fix>dgps</fix><sat>27</sat><pdop>0.0</pdop><ageofdgpsdata>0.8</ageofdgpsdata><dgpsid>1012</dgpsid></trkpt><trkpt lat="37.1471857483" lon="127.4147564633"><ele>147.3126</ele><time>2026-08-07T02:36:56.800000Z</time><fix>dgps</fix><sat>30</sat><pdop>0.0</pdop><ageofdgpsdata>0.8</ageofdgpsdata><dgpsid>1012</dgpsid></trkpt><trkpt lat="37.1471968528" lon="127.4147481162"><ele>147.3403</ele><time>2026-08-07T02:36:58Z</time><fix>dgps</fix><sat>30</sat><pdop>0.0</pdop><ageofdgpsdata>0.8</ageofdgpsdata><dgpsid>1012</dgpsid></trkpt><trkpt lat="37.1472045455" lon="127.4147391317"><ele>147.4235</ele><time>2026-08-07T02:36:59Z</time><fix>dgps</fix><sat>28</sat><pdop>0.0</pdop><ageofdgpsdata>0.8</ageofdgpsdata><dgpsid>1012</dgpsid></trkpt><trkpt lat="37.1472114693" lon="127.41472828"><ele>147.377</ele><time>2026-08-07T02:37:00Z</time><fix>dgps</fix><sat>28</sat><pdop>0.0</pdop><ageofdgpsdata>1.0</ageofdgpsdata><dgpsid>1012</dgpsid></trkpt><trkpt lat="37.1472177007" lon="127.4147164218"><ele>147.3681</ele><time>2026-08-07T02:37:01Z</time><fix>dgps</fix><sat>25</sat><pdop>0.0</pdop><ageofdgpsdata>1.0</ageofdgpsdata><dgpsid>1012</dgpsid></trkpt><trkpt lat="37.1472223017" lon="127.4147042662"><ele>147.3167</ele><time>2026-08-07T02:37:02Z</time><fix>dgps</fix><sat>25</sat><pdop>0.0</pdop><ageofdgpsdata>1.0</ageofdgpsdata><dgpsid>1012</dgpsid></trkpt><trkpt lat="37.1472259702" lon="127.4146883928"><ele>147.3701</ele><time>2026-08-07T02:37:03.200000Z</time><fix>dgps</fix><sat>20</sat><pdop>0.0</pdop><ageofdgpsdata>1.0</ageofdgpsdata><dgpsid>1012</dgpsid></trkpt><trkpt lat="37.1472273073" lon="127.4146754892"><ele>147.3018</ele><time>2026-08-07T02:37:04.200000Z</time><fix>dgps</fix><sat>23</sat><pdop>0.0</pdop><ageofdgpsdata>1.2</ageofdgpsdata><dgpsid>1012</dgpsid></trkpt><trkpt lat="37.147228414" lon="127.4146611067"><ele>147.313</ele><time>2026-08-07T02:37:05.200000Z</time><fix>dgps</fix><sat>24</sat><pdop>0.0</pdop><ageofdgpsdata>1.2</ageofdgpsdata><dgpsid>1012</dgpsid></trkpt><trkpt lat="37.1472288907" lon="127.4146464995"><ele>147.2968</ele><time>2026-08-07T02:37:06.200000Z</time><fix>dgps</fix><sat>25</sat><pdop>0.0</pdop><ageofdgpsdata>1.2</ageofdgpsdata><dgpsid>1012</dgpsid></trkpt><trkpt lat="37.1472296428" lon="127.4146317328"><ele>147.3142</ele><time>2026-08-07T02:37:07.200000Z</time><fix>dgps</fix><sat>24</sat><pdop>0.0</pdop><ageofdgpsdata>1.2</ageofdgpsdata><dgpsid>1012</dgpsid></trkpt><trkpt lat="37.1472306023" lon="127.4146141178"><ele>147.3584</ele><time>2026-08-07T02:37:08.400000Z</time><fix>dgps</fix><sat>22</sat><pdop>0.0</pdop><ageofdgpsdata>1.2</ageofdgpsdata><dgpsid>1012</dgpsid></trkpt><trkpt lat="37.1472309337" lon="127.4145995885"><ele>147.326</ele><time>2026-08-07T02:37:09.400000Z</time><fix>dgps</fix><sat>23</sat><pdop>0.0</pdop><ageofdgpsdata>1.4</ageofdgpsdata><dgpsid>1012</dgpsid></trkpt><trkpt lat="37.1472312215" lon="127.414585559"><ele>147.3654</ele><time>2026-08-07T02:37:10.400000Z</time><fix>dgps</fix><sat>24</sat><pdop>0.0</pdop><ageofdgpsdata>1.2</ageofdgpsdata><dgpsid>1012</dgpsid></trkpt><trkpt lat="37.1472316068" lon="127.4145709272"><ele>147.3723</ele><time>2026-08-07T02:37:11.400000Z</time><fix>dgps</fix><sat>23</sat><pdop>0.0</pdop><ageofdgpsdata>1.4</ageofdgpsdata><dgpsid>1012</dgpsid></trkpt><trkpt lat="37.1472316648" lon="127.4145567402"><ele>147.3887</ele><time>2026-08-07T02:37:12.400000Z</time><fix>dgps</fix><sat>24</sat><pdop>0.0</pdop><ageofdgpsdata>1.4</ageofdgpsdata><dgpsid>1012</dgpsid></trkpt><trkpt lat="37.1472316927" lon="127.4145424672"><ele>147.3311</ele><time>2026-08-07T02:37:13.400000Z</time><fix>dgps</fix><sat>25</sat><pdop>0.0</pdop><ageofdgpsdata>1.4</ageofdgpsdata><dgpsid>1012</dgpsid></trkpt><trkpt lat="37.1472308902" lon="127.4145253525"><ele>147.371</ele><time>2026-08-07T02:37:14.600000Z</time><fix>dgps</fix><sat>22</sat><pdop>0.0</pdop><ageofdgpsdata>1.4</ageofdgpsdata><dgpsid>1012</dgpsid></trkpt><trkpt lat="37.1472306147" lon="127.414510987"><ele>147.4115</ele><time>2026-08-07T02:37:15.600000Z</time><fix>dgps</fix><sat>24</sat><pdop>0.0</pdop><ageofdgpsdata>1.6</ageofdgpsdata><dgpsid>1012</dgpsid></trkpt><trkpt lat="37.1472304492" lon="127.4144966488"><ele>147.464</ele><time>2026-08-07T02:37:16.600000Z</time><fix>dgps</fix><sat>21</sat><pdop>0.0</pdop><ageofdgpsdata>0.6</ageofdgpsdata><dgpsid>1012</dgpsid></trkpt><trkpt lat="37.1472299237" lon="127.4144821043"><ele>147.518</ele><time>2026-08-07T02:37:17.600000Z</time><fix>dgps</fix><sat>22</sat><pdop>0.0</pdop><ageofdgpsdata>0.6</ageofdgpsdata><dgpsid>1012</dgpsid></trkpt><trkpt lat="37.1472295787" lon="127.4144649022"><ele>147.5092</ele><time>2026-08-07T02:37:18.800000Z</time><fix>dgps</fix><sat>20</sat><pdop>0.0</pdop><ageofdgpsdata>0.6</ageofdgpsdata><dgpsid>1012</dgpsid></trkpt><trkpt lat="37.1472294255" lon="127.4144506272"><ele>147.4493</ele><time>2026-08-07T02:37:19.800000Z</time><fix>dgps</fix><sat>21</sat><pdop>0.0</pdop><ageofdgpsdata>1.8</ageofdgpsdata><dgpsid>1012</dgpsid></trkpt><trkpt lat="37.1472284358" lon="127.414436673"><ele>147.4818</ele><time>2026-08-07T02:37:20.800000Z</time><fix>dgps</fix><sat>21</sat><pdop>0.0</pdop><ageofdgpsdata>0.8</ageofdgpsdata><dgpsid>1012</dgpsid></trkpt><trkpt lat="37.1472265357" lon="127.4144232307"><ele>147.5234</ele><time>2026-08-07T02:37:21.800000Z</time><fix>dgps</fix><sat>22</sat><pdop>0.0</pdop><ageofdgpsdata>1.8</ageofdgpsdata><dgpsid>1012</dgpsid></trkpt><trkpt lat="37.1472221208" lon="127.4144078117"><ele>147.5306</ele><time>2026-08-07T02:37:23Z</time><fix>dgps</fix><sat>20</sat><pdop>0.0</pdop><ageofdgpsdata>0.8</ageofdgpsdata><dgpsid>1012</dgpsid></trkpt><trkpt lat="37.1472181518" lon="127.414395375"><ele>147.4174</ele><time>2026-08-07T02:37:24Z</time><fix>dgps</fix><sat>20</sat><pdop>0.0</pdop><ageofdgpsdata>1.0</ageofdgpsdata><dgpsid>1012</dgpsid></trkpt><trkpt lat="37.1472120837" lon="127.4143839958"><ele>147.3782</ele><time>2026-08-07T02:37:25Z</time><fix>dgps</fix><sat>21</sat><pdop>0.0</pdop><ageofdgpsdata>1.0</ageofdgpsdata><dgpsid>1012</dgpsid></trkpt><trkpt lat="37.1472048512" lon="127.4143737625"><ele>147.3604</ele><time>2026-08-07T02:37:26Z</time><fix>dgps</fix><sat>20</sat><pdop>0.0</pdop><ageofdgpsdata>1.0</ageofdgpsdata><dgpsid>1012</dgpsid></trkpt><trkpt lat="37.1471962235" lon="127.4143655105"><ele>147.4285</ele><time>2026-08-07T02:37:27Z</time><fix>dgps</fix><sat>21</sat><pdop>0.0</pdop><ageofdgpsdata>1.0</ageofdgpsdata><dgpsid>1012</dgpsid></trkpt><trkpt lat="37.1471848127" lon="127.4143582065"><ele>147.3684</ele><time>2026-08-07T02:37:28.200000Z</time><fix>dgps</fix><sat>22</sat><pdop>0.0</pdop><ageofdgpsdata>1.0</ageofdgpsdata><dgpsid>1012</dgpsid></trkpt><trkpt lat="37.147174023" lon="127.414354297"><ele>147.3973</ele><time>2026-08-07T02:37:29.200000Z</time><fix>dgps</fix><sat>23</sat><pdop>0.0</pdop><ageofdgpsdata>1.2</ageofdgpsdata><dgpsid>1012</dgpsid></trkpt><trkpt lat="37.147162608" lon="127.4143515728"><ele>147.3707</ele><time>2026-08-07T02:37:30.200000Z</time><fix>dgps</fix><sat>25</sat><pdop>0.0</pdop><ageofdgpsdata>1.0</ageofdgpsdata><dgpsid>1012</dgpsid></trkpt><trkpt lat="37.1471509777" lon="127.4143497907"><ele>147.3829</ele><time>2026-08-07T02:37:31.200000Z</time><fix>dgps</fix><sat>26</sat><pdop>0.0</pdop><ageofdgpsdata>1.2</ageofdgpsdata><dgpsid>1012</dgpsid></trkpt><trkpt lat="37.147139267" lon="127.4143491118"><ele>147.3053</ele><time>2026-08-07T02:37:32.200000Z</time><fix>dgps</fix><sat>24</sat><pdop>0.0</pdop><ageofdgpsdata>1.2</ageofdgpsdata><dgpsid>1012</dgpsid></trkpt><trkpt lat="37.147127754" lon="127.4143484468"><ele>147.287</ele><time>2026-08-07T02:37:33.200000Z</time><fix>dgps</fix><sat>25</sat><pdop>0.0</pdop><ageofdgpsdata>1.2</ageofdgpsdata><dgpsid>1012</dgpsid></trkpt><trkpt lat="37.1471140247" lon="127.4143483343"><ele>147.3005</ele><time>2026-08-07T02:37:34.400000Z</time><fix>dgps</fix><sat>26</sat><pdop>0.0</pdop><ageofdgpsdata>1.2</ageofdgpsdata><dgpsid>1012</dgpsid></trkpt><trkpt lat="37.1471023385" lon="127.414348012"><ele>147.3428</ele><time>2026-08-07T02:37:35.400000Z</time><fix>dgps</fix><sat>27</sat><pdop>0.0</pdop><ageofdgpsdata>1.4</ageofdgpsdata><dgpsid>1012</dgpsid></trkpt><trkpt lat="37.1470905993" lon="127.4143478505"><ele>147.28</ele><time>2026-08-07T02:37:36.400000Z</time><fix>dgps</fix><sat>29</sat><pdop>0.0</pdop><ageofdgpsdata>1.4</ageofdgpsdata><dgpsid>1012</dgpsid></trkpt><trkpt lat="37.1470787462" lon="127.4143480203"><ele>147.3361</ele><time>2026-08-07T02:37:37.400000Z</time><fix>dgps</fix><sat>29</sat><pdop>0.0</pdop><ageofdgpsdata>1.4</ageofdgpsdata><dgpsid>1012</dgpsid></trkpt><trkpt lat="37.1470671198" lon="127.4143481523"><ele>147.3094</ele><time>2026-08-07T02:37:38.400000Z</time><fix>dgps</fix><sat>26</sat><pdop>0.0</pdop><ageofdgpsdata>1.4</ageofdgpsdata><dgpsid>1012</dgpsid></trkpt><trkpt lat="37.1470531878" lon="127.4143478433"><ele>147.3442</ele><time>2026-08-07T02:37:39.600000Z</time><fix>dgps</fix><sat>27</sat><pdop>0.0</pdop><ageofdgpsdata>1.4</ageofdgpsdata><dgpsid>1012</dgpsid></trkpt><trkpt lat="37.1470421162" lon="127.4143467777"><ele>147.3371</ele><time>2026-08-07T02:37:40.600000Z</time><fix>dgps</fix><sat>27</sat><pdop>0.0</pdop><ageofdgpsdata>1.6</ageofdgpsdata><dgpsid>1012</dgpsid></trkpt><trkpt lat="37.1470308393" lon="127.4143452177"><ele>147.3616</ele><time>2026-08-07T02:37:41.600000Z</time><fix>dgps</fix><sat>27</sat><pdop>0.0</pdop><ageofdgpsdata>1.4</ageofdgpsdata><dgpsid>1012</dgpsid></trkpt><trkpt lat="37.1470192827" lon="127.4143446857"><ele>147.3527</ele><time>2026-08-07T02:37:42.600000Z</time><fix>dgps</fix><sat>28</sat><pdop>0.0</pdop><ageofdgpsdata>1.6</ageofdgpsdata><dgpsid>1012</dgpsid></trkpt><trkpt lat="37.1470079137" lon="127.414344557"><ele>147.3511</ele><time>2026-08-07T02:37:43.600000Z</time><fix>dgps</fix><sat>30</sat><pdop>0.0</pdop><ageofdgpsdata>1.6</ageofdgpsdata><dgpsid>1012</dgpsid></trkpt><trkpt lat="37.1469964348" lon="127.4143449662"><ele>147.3646</ele><time>2026-08-07T02:37:44.600000Z</time><fix>dgps</fix><sat>30</sat><pdop>0.0</pdop><ageofdgpsdata>1.6</ageofdgpsdata><dgpsid>1012</dgpsid></trkpt><trkpt lat="37.1469828225" lon="127.414344398"><ele>147.3626</ele><time>2026-08-07T02:37:45.800000Z</time><fix>dgps</fix><sat>30</sat><pdop>0.0</pdop><ageofdgpsdata>0.6</ageofdgpsdata><dgpsid>1012</dgpsid></trkpt><trkpt lat="37.1469713672" lon="127.414345082"><ele>147.3723</ele><time>2026-08-07T02:37:46.800000Z</time><fix>dgps</fix><sat>33</sat><pdop>0.0</pdop><ageofdgpsdata>0.8</ageofdgpsdata><dgpsid>1012</dgpsid></trkpt><trkpt lat="37.1469599063" lon="127.4143463377"><ele>147.3542</ele><time>2026-08-07T02:37:47.800000Z</time><fix>dgps</fix><sat>33</sat><pdop>0.0</pdop><ageofdgpsdata>0.8</ageofdgpsdata><dgpsid>1012</dgpsid></trkpt><trkpt lat="37.146948174" lon="127.414347599"><ele>147.3478</ele><time>2026-08-07T02:37:48.800000Z</time><fix>dgps</fix><sat>31</sat><pdop>0.0</pdop><ageofdgpsdata>0.8</ageofdgpsdata><dgpsid>1012</dgpsid></trkpt><trkpt lat="37.1469345507" lon="127.4143497092"><ele>147.3552</ele><time>2026-08-07T02:37:50Z</time><fix>dgps</fix><sat>34</sat><pdop>0.0</pdop><ageofdgpsdata>1.8</ageofdgpsdata><dgpsid>1012</dgpsid></trkpt><trkpt lat="37.1469233525" lon="127.4143527202"><ele>147.3869</ele><time>2026-08-07T02:37:51Z</time><fix>dgps</fix><sat>34</sat><pdop>0.0</pdop><ageofdgpsdata>1.0</ageofdgpsdata><dgpsid>1012</dgpsid></trkpt><trkpt lat="37.1469130762" lon="127.4143577218"><ele>147.3989</ele><time>2026-08-07T02:37:52Z</time><fix>dgps</fix><sat>38</sat><pdop>0.0</pdop><ageofdgpsdata>1.0</ageofdgpsdata><dgpsid>1012</dgpsid></trkpt><trkpt lat="37.1469030907" lon="127.4143638752"><ele>147.4067</ele><time>2026-08-07T02:37:53Z</time><fix>dgps</fix><sat>38</sat><pdop>0.0</pdop><ageofdgpsdata>1.0</ageofdgpsdata><dgpsid>1012</dgpsid></trkpt><trkpt lat="37.146893773" lon="127.4143715242"><ele>147.3766</ele><time>2026-08-07T02:37:54Z</time><fix>dgps</fix><sat>38</sat><pdop>0.0</pdop><ageofdgpsdata>1.0</ageofdgpsdata><dgpsid>1012</dgpsid></trkpt><trkpt lat="37.146882809" lon="127.4143815045"><ele>147.3541</ele><time>2026-08-07T02:37:55.200000Z</time><fix>dgps</fix><sat>37</sat><pdop>0.0</pdop><ageofdgpsdata>1.0</ageofdgpsdata><dgpsid>1012</dgpsid></trkpt><trkpt lat="37.1468732687" lon="127.4143902205"><ele>147.3979</ele><time>2026-08-07T02:37:56.200000Z</time><fix>dgps</fix><sat>39</sat><pdop>0.0</pdop><ageofdgpsdata>1.2</ageofdgpsdata><dgpsid>1012</dgpsid></trkpt><trkpt lat="37.1468640943" lon="127.4143990043"><ele>147.3892</ele><time>2026-08-07T02:37:57.200000Z</time><fix>dgps</fix><sat>38</sat><pdop>0.0</pdop><ageofdgpsdata>1.0</ageofdgpsdata><dgpsid>1012</dgpsid></trkpt><trkpt lat="37.1468551117" lon="127.4144076915"><ele>147.4196</ele><time>2026-08-07T02:37:58.200000Z</time><fix>dgps</fix><sat>37</sat><pdop>0.0</pdop><ageofdgpsdata>1.2</ageofdgpsdata><dgpsid>1012</dgpsid></trkpt><trkpt lat="37.146846637" lon="127.4144166603"><ele>147.4042</ele><time>2026-08-07T02:37:59.200000Z</time><fix>dgps</fix><sat>37</sat><pdop>0.0</pdop><ageofdgpsdata>1.2</ageofdgpsdata><dgpsid>1012</dgpsid></trkpt><trkpt lat="37.1468375427" lon="127.4144257607"><ele>147.3693</ele><time>2026-08-07T02:38:00.200000Z</time><fix>dgps</fix><sat>36</sat><pdop>0.0</pdop><ageofdgpsdata>1.2</ageofdgpsdata><dgpsid>1012</dgpsid></trkpt><trkpt lat="37.146827338" lon="127.4144367108"><ele>147.3523</ele><time>2026-08-07T02:38:01.400000Z</time><fix>dgps</fix><sat>35</sat><pdop>0.0</pdop><ageofdgpsdata>1.2</ageofdgpsdata><dgpsid>1012</dgpsid></trkpt><trkpt lat="37.146819762" lon="127.4144451097"><ele>147.3272</ele><time>2026-08-07T02:38:02.400000Z</time><fix>dgps</fix><sat>33</sat><pdop>0.0</pdop><ageofdgpsdata>1.4</ageofdgpsdata><dgpsid>1012</dgpsid></trkpt><trkpt lat="37.1468121468" lon="127.4144521882"><ele>147.2765</ele><time>2026-08-07T02:38:03.400000Z</time><fix>dgps</fix><sat>32</sat><pdop>0.0</pdop><ageofdgpsdata>1.4</ageofdgpsdata><dgpsid>1012</dgpsid></trkpt><trkpt lat="37.1468036225" lon="127.4144537888"><ele>146.7847</ele><time>2026-08-07T02:38:04.400000Z</time><fix>dgps</fix><sat>23</sat><pdop>0.0</pdop><ageofdgpsdata>1.4</ageofdgpsdata><dgpsid>1012</dgpsid></trkpt><trkpt lat="37.1468034318" lon="127.414448328"><ele>146.0105</ele><time>2026-08-07T02:38:05.600000Z</time><fix>dgps</fix><sat>30</sat><pdop>0.0</pdop><ageofdgpsdata>1.4</ageofdgpsdata><dgpsid>1012</dgpsid></trkpt><trkpt lat="37.1468030932" lon="127.4144477577"><ele>145.9318</ele><time>2026-08-07T02:38:06.600000Z</time><fix>dgps</fix><sat>29</sat><pdop>0.0</pdop><ageofdgpsdata>1.6</ageofdgpsdata><dgpsid>1012</dgpsid></trkpt><trkpt lat="37.146803321" lon="127.4144476857"><ele>145.9368</ele><time>2026-08-07T02:38:07.800000Z</time><fix>dgps</fix><sat>34</sat><pdop>0.0</pdop><ageofdgpsdata>1.6</ageofdgpsdata><dgpsid>1012</dgpsid></trkpt><trkpt lat="37.1468033138" lon="127.4144476485"><ele>145.9319</ele><time>2026-08-07T02:38:08.800000Z</time><fix>dgps</fix><sat>37</sat><pdop>0.0</pdop><ageofdgpsdata>0.8</ageofdgpsdata><dgpsid>1012</dgpsid></trkpt><trkpt lat="37.1468033245" lon="127.4144476247"><ele>145.925</ele><time>2026-08-07T02:38:09.800000Z</time><fix>dgps</fix><sat>37</sat><pdop>0.0</pdop><ageofdgpsdata>0.6</ageofdgpsdata><dgpsid>1012</dgpsid></trkpt></trkseg></trk></gpx>